[
    {"id" : "1","name" : "Chattagram","bn_name" : "চট্টগ্রাম","url" : "www.chittagongdiv.gov.bd","lat":"22.358627","lon" : "91.784503"},
    {"id" : "2","name" : "Rajshahi","bn_name" : "রাজশাহী","url" : "www.rajshahidiv.gov.bd","lat":"24.374830","lon" : "88.604095"},
    {"id" : "3","name" : "Khulna","bn_name" : "খুলনা","url" : "www.khulnadiv.gov.bd","lat":"22.837273","lon" : "89.540044"},
    {"id" : "4","name" : "Barisal","bn_name" : "বরিশাল","url" : "www.barisaldiv.gov.bd","lat":"22.702031","lon" : "90.352774"},
    {"id" : "5","name" : "Sylhet","bn_name" : "সিলেট","url" : "www.sylhetdiv.gov.bd","lat":"24.883453","lon" : "91.868606"},
    {"id" : "6","name" : "Dhaka","bn_name" : "ঢাকা","url" : "www.dhakadiv.gov.bd","lat":"23.811273","lon" : "90.404240"},
    {"id" : "7","name" : "Rangpur","bn_name" : "রংপুর","url" : "www.rangpurdiv.gov.bd","lat":"25.744268","lon" : "89.273203"},
    {"id" : "8","name" : "Mymensingh","bn_name" : "ময়মনসিংহ","url" : "www.mymensinghdiv.gov.bd","lat":"24.747132","lon" : "90.421129"}
  ]