[

    {"name" : "Barisal City Corporation", "ward": 30, "bn_name" : "বরিশাল সিটি কর্পোরেশন" , "district_id" : "33"},
    {"name" : "Chattogram City Corporatio", "ward": 41, "bn_name" : "চট্টগ্রাম সিটি কর্পোরেশন" , "district_id" : "8"},
    {"name" : "Dhaka North City Corporation", "ward": 54, "bn_name" : "ঢাকা উত্তর সিটি কর্পোরেশন" , "district_id" : "47"},
    {"name" : "Dhaka South City Corporation", "ward": 75, "bn_name" : "ঢাকা দক্ষিণ সিটি কর্পোরেশন" , "district_id" : "47"},
    {"name" : "Khulna City Corporation", "ward": 31, "bn_name" : "খুলনা সিটি কর্পোরেশন" , "district_id" : "27"},
    {"name" : "Rajshahi City Corporation", "ward": 30, "bn_name" : "রাজশাহী সিটি কর্পোরেশন" , "district_id" : "15"},
    {"name" : "Sylhet City corporation", "ward": 27, "bn_name" : "সিলেট সিটি কর্পোরেশন" , "district_id" : "36"},
    {"name" : "Comilla City Corporation", "ward": 27, "bn_name" : "কুমিল্লা সিটি কর্পোরেশন" , "district_id" : "1"},
    {"name" : "Gazipur City Corporation", "ward": 57, "bn_name" : "গাজীপুর সিটি কর্পোরেশন " , "district_id" : "41"},
    {"name" : "Narayanganj City Corporation", "ward": 27, "bn_name" : "নারায়ণগঞ্জ সিটি কর্পোরেশন" , "district_id" : "43"},
    {"name" : "Mymensingh City Corporation", "ward": 33, "bn_name" : "ময়মনসিংহ সিটি কর্পোরেশন" , "district_id" : "62"},
    {"name" : "Amtali Paurashava","ward" : 9,"bn_name" : "আমতলী", "district_id" : "33"},
    {"name" : "Barguna Paurashava", "ward" : 9,"bn_name" : "বরগুনা পৌরসভা ", "district_id" : "35"},
    {"name" : "Betagi Paurashava", "ward" : 9,"bn_name" : "বেতাগী পৌরসভা", "district_id" : "35"},
    {"name" : "Patharghata Paurashava", "ward" : 9,"bn_name" : "পাথরঘাটা পৌরসভা", "district_id" : "35"},
    {"name" : "Bakerganj Paurashava", "ward" : 9,"bn_name" : "বাকেরগঞ্জ পৌরসভা", "district_id" : "33"},
    {"name" : "Banaripara Paurashava", "ward" : 9,"bn_name" : " বানারিপাড়া পৌরসভা", "district_id" : "33"},
    {"name" : "Gournadi Paurashava", "ward" : 9,"bn_name"  : " গৌরনদী পৌরসভা", "district_id" : "33"},
    {"name" : "Mehendiganj Paurashava", "ward" : 9,"bn_name" : "মেহেন্দিগঞ্জ  পৌরসভা", "district_id" : "33"},
    {"name" : "Muladi Paurashava", "ward" : 9,"bn_name" : "মুলাদি পৌরসভা", "district_id" : "33"},
    {"name" : "Bhola Paurashava", "ward" : 9,"bn_name" : "ভোলা পৌরসভা", "district_id" : "34"},
    {"name" : "Burhanuddin Paurashava", "ward" : 9,"bn_name" : "বোরহানউদ্দিন পৌরসভা", "district_id" : "34"},
    {"name" : "Char Fasson Paurashava", "ward" : 9,"bn_name" : "চর ফ্যাশন পৌরসভা", "district_id" : "34"},
    {"name" : "Daulat Khan Paurashava", "ward" : 9,"bn_name" : "দৌলতখান পৌরসভা", "district_id" : "34"},
    {"name" : "Lalmohan Paurashava", "ward" : 9,"bn_name"  : "লালমোহন পৌরসভা", "district_id" : "34"},
    {"name" : "Jhalokati Paurashava", "ward" : 9,"bn_name" : "ঝালকাঠি পৌরসভা ", "district_id" : "30"},
    {"name" : "Nalchity Paurashava", "ward" : 9,"bn_name"  : "নলছিটি", "district_id" : "30"},
    {"name" : "Bauphal Paurashava", "ward" : 9,"bn_name" : "বাউফল পৌরসভা", "district_id" : "31"},
    {"name" : "Galachipa Paurashava", "ward" : 9,"bn_name" : "গলাচিপা পৌরসভা", "district_id" : "31"},
    {"name" : "Kalapara Paurashava", "ward" : 9,"bn_name" : "কলাপাড়া পৌরসভা", "district_id" : "31"},
    {"name" : "Kuakata Paurashava", "ward" : 9,"bn_name" : "কুয়াকাটা পৌরসভা", "district_id" : "31"},
    {"name" : "Patuakhali Paurashava", "ward" : 9,"bn_name" : "পটুয়াখালী পৌরসভা", "district_id" : "31"},
    {"name" : "Mathbaria Paurashava", "ward" : 9,"bn_name" : "মঠবাড়িয়া পৌরসভা", "district_id" : "32"},
    {"name" : "Pirojpur Paurashava", "ward" : 9,"bn_name"  : "পিরোজপুর পৌরসভা", "district_id" : "32"},
    {"name" : "Swarupkati Paurashava", "ward" : 9,"bn_name" : "স্বরূপকাঠি পৌরসভা", "district_id" : "32"},
    {"name" : "Bandarban Paurashava", "ward" : 9, "bn_name" : "বান্দরবান পৌরসভা", "district_id" : "11"},
    {"name" : "Lama Paurashava", "ward" : 9, "bn_name" : "লামা পৌরসভা", "district_id" : "11"},
    {"name" : "Akhaura Paurashava", "ward" : 9, "bn_name" : "আখাউড়া পৌরসভা", "district_id" : "3"},
    {"name" : "Brahmanbaria Paurashava", "ward" : 12, "bn_name" : "ব্রাহ্মণবাড়িয়া পৌরসভা", "district_id" : "3"},
    {"name" : "Kasba Paurashava", "ward" : 9, "bn_name" : "কসবা পৌরসভা", "district_id" : "3"},
    {"name" : "Nabinagar Paurashava", "ward" : 9, "bn_name" : "নবীনগর পৌরসভা", "district_id" : "3"},
    {"name" : "Chandpur Paurashava", "ward" : 15, "bn_name" : "চাঁদপুর পৌরসভা", "district_id" : "6"},
    {"name" : "Faridganj Paurashava", "ward" : 9, "bn_name" : "ফরিদগঞ্জ পৌরসভা", "district_id" : "6"},
    {"name" : "Hajiganj Paurashava", "ward" : 12, "bn_name" : "হাজীগঞ্জ পৌরসভা", "district_id" : "6"},
    {"name" : "Kachua Paurashava", "ward" : 9, "bn_name" : "কচুয়া পৌরসভা", "district_id" : "28"},
    {"name" : "Matlab Paurashava", "ward" : 9, "bn_name" : "মতলব পৌরসভা", "district_id" : "6"},
    {"name" : "Sonar Char Paurashava", "ward" : 9, "bn_name" : "সোনারচর পৌরসভা", "district_id" : "31"},
    {"name" : "Shahrasti Paurashava", "ward" : 9, "bn_name" : "শাহরাস্তি পৌরসভা", "district_id" : "6"},
    {"name" : "Banshkhali Paurashava", "ward" : 9, "bn_name" : "বাঁশখালী পৌরসভা", "district_id" : "8"},
    {"name" : "Chandanaish Paurashava", "ward" : 9, "bn_name" : "চন্দনাইশ পৌরসভা", "district_id" : "8"},
    {"name" : "Baroiyarhat Paurashava", "ward" : 9, "bn_name" : "বারৈয়ারহাট পৌরসভা", "district_id" : "8"}, 
    {"name" : "Gaffargaon Paurashava", "ward" : 9, "bn_name" : "গফরগাঁও পৌরসভা", "district_id" : "62"},
    {"name" : "Gauripur Paurashava", "ward" : 9, "bn_name" : "গৌরীপুর পৌরসভা", "district_id" : "62"},
    {"name" : "Ishwarganj Paurashava", "ward" : 9, "bn_name" : "ঈশ্বরগঞ্জ পৌরসভা", "district_id" : "62"},
    {"name" : "Mymensingh Paurashava", "ward" : 21, "bn_name" : "ময়মনসিংহ পৌরসভা", "district_id" : "62"},
    {"name" : "Muktagachha Paurashava", "ward" : 9, "bn_name" : "মুক্তাগাছা পৌরসভা", "district_id" : "62"},
    {"name" : "Nandail Paurashava", "ward" : 9, "bn_name" : "নান্দাইল পৌরসভা", "district_id" : "62"},
    {"name" : "Phulpur Paurashava", "ward" : 9, "bn_name" : "ফুলপুর পৌরসভা", "district_id" : "62"},
    {"name" : "Trishal Paurashava", "ward" : 9, "bn_name" : "ত্রিশাল পৌরসভা", "district_id" : "62"},
    {"name" : "Sonargaon Paurashava", "ward" : 9, "bn_name" : "সোনারগাঁ পৌরসভা", "district_id" : "43"},
    {"name" : "Narayanganj Paurashava", "ward" : 9, "bn_name" : "নারায়ণগঞ্জ পৌরসভা", "district_id" : "43"},
    {"name" : "Siddhirganj Paurashava", "ward" : 9, "bn_name" : "সিদ্ধিরগঞ্জ পৌরসভা", "district_id" : "43"},
    {"name" : "Kadam Rasul (Bandar}", "ward" : 9, "bn_name" : "কদম রসুল (বন্দর} পৌরসভা", "district_id" : "43"},
    {"name" : "Kanchan Paurashava", "ward" : 9, "bn_name" : "কাঞ্চন পৌরসভা", "district_id" : "43"},
    {"name" : "Tarabo Paurashava", "ward" : 9, "bn_name" : "তারাব পৌরসভা", "district_id" : "43"},
    {"name" : "Manohardi Paurashava", "ward" : 9, "bn_name" : "মনোহরদী পৌরসভা", "district_id" : "40"},
    {"name" : "Madhabdi Paurashava", "ward" : 9, "bn_name" : "মাধবদী পৌরসভা", "district_id" : "40"},
    {"name" : "Narsingdi Paurashava", "ward" : 9, "bn_name" : "নরসিংদী পৌরসভা", "district_id" : "40"},
    {"name" : "Ghorasal Paurashava", "ward" : 9, "bn_name" : "ঘোড়াশাল পৌরসভা", "district_id" : "40"},
    {"name" : "Roypura Paurashava", "ward" : 9, "bn_name" : "রায়পুর  পৌরসভা", "district_id" : "40"},
    {"name" : "Shibpur Paurashava", "ward" : 9, "bn_name" : "শিবপুর পৌরসভা", "district_id" : "40"},
    {"name" : "Durgapur Paurashava", "ward" : 9, "bn_name" : "দূর্গাপুর পৌরসভা", "district_id" : "64"},
    {"name" : "Kendua Paurashava", "ward" : 9, "bn_name" : "কেন্দুয়া পৌরসভা", "district_id" : "64"},
    {"name" : "Madan Paurashava", "ward" : 9, "bn_name" : "মদন পৌরসভা", "district_id" : "64"},
    {"name" : "Mohanganj Paurashava", "ward" : 9, "bn_name" : "মোহনগঞ্জ পৌরসভা", "district_id" : "64"},
    {"name" : "Netrokona Paurashava", "ward" : 9, "bn_name" : "নেত্রকোনা পৌরসভা", "district_id" : "64"},
    {"name" : "Goalundo Ghat Paurashava", "ward" : 9, "bn_name" : "গোয়ালন্দঘাট পৌরসভা", "district_id" : "49"},
    {"name" : "Pangsha Paurashava", "ward" : 9, "bn_name" : "পাংশা পৌরসভা", "district_id" : "49"},
    {"name" : "Rajbari Paurashava", "ward" : 9, "bn_name" : "রাজবাড়ী পৌরসভা", "district_id" : "49"},
    {"name" : "Bhedarganj Paurashava", "ward" : 9, "bn_name" : "ভেদরগঞ্জ পৌরসভা", "district_id" : "42"},
    {"name" : "Damudya Paurashava", "ward" : 9, "bn_name" : "ডামুড্যা পৌরসভা", "district_id" : "42"},
    {"name" : "Naria Paurashava", "ward" : 9, "bn_name" : "নড়িয়া পৌরসভা", "district_id" : "42"},
    {"name" : "Shariatpur Paurashava", "ward" : 9, "bn_name" : "শরিয়তপুর পৌরসভা", "district_id" : "42"},
    {"name" : "Zajira Paurashava", "ward" : 9, "bn_name" : "জাজিরা পৌরসভা", "district_id" : "42"},
    {"name" : "Nakla Paurashava", "ward" : 9, "bn_name" : "নকলা পৌরসভা", "district_id" : "61"},
    {"name" : "Nalitabari Paurashava", "ward" : 9, "bn_name" : "নালিতাবাড়ী পৌরসভা", "district_id" : "61"},
    {"name" : "Sherpur Paurashava", "ward" : 9, "bn_name" : "শেরপুর  পৌরসভা", "district_id" : "14"},
    {"name" : "Sreebardi Paurashava", "ward" : 9, "bn_name" : "শ্রীবর্দি পৌরসভা", "district_id" : "14"},
    {"name" : "Bhuapur Paurashava", "ward" : 9, "bn_name" : "ভূঞাপুর পৌরসভা", "district_id" : "44"},
    {"name" : "Dhanbari Paurashava", "ward" : 9, "bn_name" : "ধনবাড়ী পৌরসভা", "district_id" : "44"},
    {"name" : "Ghatail Paurashava", "ward" : 9, "bn_name" : "ঘাটাইল পৌরসভা", "district_id" : "44"},
    {"name" : "Gopalpur Paurashava", "ward" : 9, "bn_name" : "গোপালপুর পৌরসভা", "district_id" : "44"},
    {"name" : "Kalihati Paurashava", "ward" : 9, "bn_name" : "কালিহাতী পৌরসভা", "district_id" : "44"},
    {"name" : "Madhupur Paurashava", "ward" : 9, "bn_name" : "মধুপুর পৌরসভা", "district_id" : "44"},
    {"name" : "Mirzapur Paurashava", "ward" : 9, "bn_name" : "মির্জাপুর পৌরসভা", "district_id" : "44"},
    {"name" : "Sakhipur Paurashava", "ward" : 9, "bn_name" : "সখিপুর পৌরসভা", "district_id" : "44"},
    {"name" : "Tangail Paurashava", "ward" : 18, "bn_name" : "টাঙ্গাইল পৌরসভা", "district_id" : "44"},
    {"name" : "Bagerhat Paurashava", "ward" : 9, "bn_name" : "বাগেরহাট  পৌরসভা", "district_id" : "28"},
    {"name" : "Mongla Paurashava", "ward" : 9, "bn_name" : "মংলা পৌরসভা", "district_id" : "28"},
    {"name" : "Morrelganj Paurashava", "ward" : 9, "bn_name" : " পৌরসভা", "district_id" : "28"},
    {"name" : "Alamdanga Paurashava", "ward" : 9, "bn_name" : "আলমডাঙ্গা পৌরসভা", "district_id" : "24"},
    {"name" : "Chuadanga Paurashava", "ward" : 9, "bn_name" : "চুয়াডাঙ্গা পৌরসভা", "district_id" : "24"},
    {"name" : "Darshana Paurashava", "ward" : 9, "bn_name" : "দর্শনা পৌরসভা", "district_id" : "24"},
    {"name" : "Jibannagar Paurashava", "ward" : 9, "bn_name" : "জীবননগর পৌরসভা", "district_id" : "24"},
    {"name" : "Noapara Paurashava", "ward" : 9, "bn_name" : "নোয়াপাড়া পৌরসভা", "district_id" : "20"},
    {"name" : "Bagherpara Paurashava", "ward" : 9, "bn_name" : "বাঘারপাড়া পৌরসভা", "district_id" : "20"},
    {"name" : "Chaugachha Paurashava", "ward" : 9, "bn_name" : "চৌগাছা পৌরসভা", "district_id" : "20"},
    {"name" : "Jhikargachha Paurashava", "ward" : 9, "bn_name" : "ঝিকরগাছা পৌরসভা", "district_id" : "20"},
    {"name" : "Keshabpur Paurashava", "ward" : 9, "bn_name" : "কেশবপুর পৌরসভা", "district_id" : "20"},
    {"name" : "Jessore Paurashava", "ward" : 9, "bn_name" : "যশোর পৌরসভা", "district_id" : "20"},
    {"name" : "Manirampur Paurashava", "ward" : 9, "bn_name" : "মণিরামপুর পৌরসভা", "district_id" : "20"},
    {"name" : "Benapole Paurashava", "ward" : 9, "bn_name" : "বেনাপোল পৌরসভা", "district_id" : "20"},
    {"name" : "Harinakundu Paurashava", "ward" : 9, "bn_name" : "হরিণাকুন্ড পৌরসভা", "district_id" : "29"},
    {"name" : "Jhenaidah Paurashava", "ward" : 9, "bn_name" : "ঝিনাইদহ পৌরসভা", "district_id" : "29"},
    {"name" : "Kaliganj Paurashava", "ward" : 9, "bn_name" : "কালীগঞ্জ  পৌরসভা", "district_id" : "29"},
    {"name" : "Kotchandpur Paurashava", "ward" : 9, "bn_name" : "কোটচাঁদপুর পৌরসভা", "district_id" : "29"},
    {"name" : "Maheshpur Paurashava", "ward" : 9, "bn_name" : "মহেশপুর  পৌরসভা", "district_id" : "29"},
    {"name" : "Shailkupa Paurashava", "ward" : 9, "bn_name" : "শৈলকুপা পৌরসভা", "district_id" : "29"},
    {"name" : "Chalna Paurashava", "ward" : 9, "bn_name" : "চালনা পৌরসভা", "district_id" : "27"},
    {"name" : "Paikgachha Paurashava", "ward" : 9, "bn_name" : "পাইকগাছা পৌরসভা", "district_id" : "27"},
    {"name" : "Bheramara Paurashava", "ward" : 9, "bn_name" : "ভেড়ামারা পৌরসভা", "district_id" : "25"},
    {"name" : "Khoksa Paurashava", "ward" : 9, "bn_name" : "খোকসা পৌরসভা", "district_id" : "25"},
    {"name" : "Kumarkhali Paurashava", "ward" : 9, "bn_name" : "কুমারখালি পৌরসভা", "district_id" : "25"},
    {"name" : "Kushtia Paurashava", "ward" : 12, "bn_name" : "কুষ্টিয়া  পৌরসভা", "district_id" : "25"},
    {"name" : "Mirpur Paurashava", "ward" : 9, "bn_name" : "মিরপুর পৌরসভা", "district_id" : "25"},
    {"name" : "Magura Paurashava", "ward" : 9, "bn_name" : "মাগুরা পৌরসভা", "district_id" : "26"},
    {"name" : "Gangni Paurashava", "ward" : 9, "bn_name" : "গাংনী পৌরসভা", "district_id" : "22"},
    {"name" : "Meherpur Paurashava", "ward" : 9, "bn_name" : "মেহেরপুর পৌরসভা", "district_id" : "22"},
    {"name" : "Kalia Paurashava", "ward" : 9, "bn_name" : "কালিয়া পৌরসভা", "district_id" : "23"},
    {"name" : "Lohagara Paurashava", "ward" : 9, "bn_name" : "লোহাগড়া পৌরসভা", "district_id" : "23"},
    {"name" : "Narail Paurashava", "ward" : 9, "bn_name" : "নড়াইল  পৌরসভা", "district_id" : "23"},
    {"name" : "Kalaroa Paurashava", "ward" : 9, "bn_name" : "কলারোয়া পৌরসভা", "district_id" : "21"},
    {"name" : "Satkhira Paurashava", "ward" : 9, "bn_name" : "সাতক্ষীরা  পৌরসভা", "district_id" : "21"},
    {"name" : "Santahar Paurashava", "ward" : 9, "bn_name" : "সান্তাহার পৌরসভা", "district_id" : "14"},
    {"name" : "Bogra Paurashava", "ward" : 21, "bn_name" : "বগুড়া পৌরসভা", "district_id" : "14"},
    {"name" : "Dhunat Paurashava", "ward" : 9, "bn_name" : "ধুনট  পৌরসভা", "district_id" : "14"},
    {"name" : "Dhupchanchia Paurashava", "ward" : 9, "bn_name" : "দুপচাঁচিয়া  পৌরসভা", "district_id" : "14"},
    {"name" : "Gabtali Paurashava", "ward" : 9, "bn_name" : "গাবতলী  পৌরসভা", "district_id" : "14"},
    {"name" : "Kahaloo Paurashava", "ward" : 9, "bn_name" : "কাহালু  পৌরসভা", "district_id" : "14"},
    {"name" : "Nandigram Paurashava", "ward" : 9, "bn_name" : "নন্দীগ্রাম  পৌরসভা", "district_id" : "14"},
    {"name" : "Sariakandi Paurashava", "ward" : 9, "bn_name" : "সারিয়াকান্দি  পৌরসভা", "district_id" : "14"}, 
    {"name" : "Shibganj Paurashava", "ward" : 9, "bn_name" : "শিবগঞ্জ পৌরসভা", "district_id" : "14"},
    {"name" : "Sonatola Paurashava", "ward" : 9, "bn_name" : "সোনাতলা  পৌরসভা", "district_id" : "14"},
    {"name" : "Akkelpur Paurashava", "ward" : 9, "bn_name" : "আক্কেলপুর পৌরসভা", "district_id" : "17"},
    {"name" : "Joypurhat Paurashava", "ward" : 9, "bn_name" : "জয়পুরহাট পৌরসভা", "district_id" : "17"},
    {"name" : "Kalai Paurashava", "ward" : 9, "bn_name" : "কালাই পৌরসভা", "district_id" : "17"},
    {"name" : "Panchbibi Paurashava", "ward" : 9, "bn_name" : "পাঁচবিবি  পৌরসভা", "district_id" : "17"},
    {"name" : "Dhamoirhat Paurashava", "ward" : 9, "bn_name" : "ধামইরহাট পৌরসভা", "district_id" : "19"},
    {"name" : "Naogaon Paurashava", "ward" : 9, "bn_name" : "নওগাঁ  পৌরসভা", "district_id" : "19"},
    {"name" : "Nozipur Paurashava", "ward" : 9, "bn_name" : "নাযিপুর পৌরসভা", "district_id" : "19"},
    {"name" : "Bagatipara Paurashava", "ward" : 9, "bn_name" : "বাগাতিপাড়া পৌরসভা", "district_id" : "16"},
    {"name" : "Baraigram Paurashava", "ward" : 9, "bn_name" : "বড়াইগ্রাম পৌরসভা", "district_id" : "16"},
    {"name" : "Bonpara  Paurashava", "ward" : 9, "bn_name" : "বনপারা পৌরসভা", "district_id" : "16"},
    {"name" : "Gurudaspur Paurashava", "ward" : 9, "bn_name" : "গুরুদাসপুর পৌরসভা", "district_id" : "16"}, 
    {"name" : "Mirsarai Paurashava", "ward" : 9, "bn_name" : "মীরসরাই পৌরসভা", "district_id" : "8"},
    {"name" : "Patiya Paurashava", "ward" : 9, "bn_name" : "পটিয়া পৌরসভা", "district_id" : "8"},
    {"name" : "Rangunia Paurashava", "ward" : 9, "bn_name" : "রাঙ্গুনিয়া পৌরসভা", "district_id" : "8"},
    {"name" : "Raozan Paurashava", "ward" : 9, "bn_name" : " রাউজান পৌরসভা", "district_id" : "8"},
    {"name" : "Sandwip Paurashava", "ward" : 9, "bn_name" : "সন্দ্বীপ পৌরসভা", "district_id" : "8"},
    {"name" : "Satkania Paurashava", "ward" : 9, "bn_name" : "সাতকানিয়া পৌরসভা", "district_id" : "8"},
    {"name" : "Sitakunda Paurashava", "ward" : 9, "bn_name" : "সীতাকুণ্ড পৌরসভা", "district_id" : "8"},
    {"name" : "Barura Paurashava", "ward" : 9, "bn_name" : "বরুড়া পৌরসভা", "district_id" : "1"},
    {"name" : "Chandina Paurashava", "ward" : 9, "bn_name" : "চান্দিনা পৌরসভা", "district_id" : "1"},
    {"name" : "Chauddagram Paurashava", "ward" : 9, "bn_name" : "চৌদ্দগ্রাম পৌরসভা", "district_id" : "1"},
    {"name" : "Comilla Sadar Dakshin Paurashava", "ward" : 9, "bn_name" : "কুমিল্লা পৌরসভা", "district_id" : "1"},
    {"name" : "Daudkandi Paurashava", "ward" : 9, "bn_name" : "দাউদকান্দি পৌরসভা", "district_id" : "1"},
    {"name" : "Debidwar Paurashava", "ward" : 9, "bn_name" : "দেবিদ্বার পৌরসভা", "district_id" : "1"},
    {"name" : "Homna Paurashava", "ward" : 9, "bn_name" : "হোমনা পৌরসভা", "district_id" : "1"},
    {"name" : "Comilla Adarsha Sadar Paurashava", "ward" : 18, "bn_name" : "কুমিল্লা আদর্শ সদর পৌরসভা", "district_id" : "1"},
    {"name" : "Laksam Paurashava", "ward" : 9, "bn_name" : "লাকসাম পৌরসভা", "district_id" : "1"},
    {"name" : "Nangalkot Paurashava", "ward" : 9, "bn_name" : "নাঙ্গলকোট পৌরসভা", "district_id" : "1"},
    {"name" : "Chakaria Paurashava", "ward" : 9, "bn_name" : "চকরিয়া পৌরসভা", "district_id" : "9"},
    {"name" : "Cox’s Bazar Paurashava", "ward" : 12, "bn_name" : "কক্সবাজার পৌরসভা", "district_id" : "9"},
    {"name" : "Maheshkhali Paurashava", "ward" : 9, "bn_name" : "মহেশখালী পৌরসভা", "district_id" : "9"},
    {"name" : "Teknaf Paurashava", "ward" : 9, "bn_name" : "টেকনাফ পৌরসভা", "district_id" : "9"},
    {"name" : "Chhagalnaiya Paurashava", "ward" : 9, "bn_name" : "ছাগলনাইয়া পৌরসভা", "district_id" : "2"},
    {"name" : "Daganbhuiyan Paurashava", "ward" : 9, "bn_name" : "দাগনভূইয়া পৌরসভা", "district_id" : "2"},
    {"name" : "Feni Paurashava", "ward" : 18, "bn_name" : "ফেনী পৌরসভা", "district_id" : "2"},
    {"name" : "Parshuram Paurashava", "ward" : 9, "bn_name" : "পরশুরাম পৌরসভা", "district_id" : "2"},
    {"name" : "Sonagazi Paurashava", "ward" : 9, "bn_name" : "সোনাগাজী পৌরসভা", "district_id" : "2"},
    {"name" : "Khagrachhari Paurashava", "ward" : 9, "bn_name" : "খাগড়াছড়ি পৌরসভা", "district_id" : "10"},
    {"name" : "Matiranga Paurashava", "ward" : 9, "bn_name" : "মাটিরাঙ্গা পৌরসভা", "district_id" : "10"},
    {"name" : "Ramgarh Paurashava", "ward" : 9, "bn_name" : "রামগড় পৌরসভা", "district_id" : "10"},
    {"name" : "Lakshmipur Paurashava", "ward" : 9, "bn_name" : "লক্ষ্মীপুর পৌরসভা", "district_id" : "7"},
    {"name" : "Roypur Paurashava", "ward" : 9, "bn_name" : "রায়পুর পৌরসভা", "district_id" : "7"},
    {"name" : "Ramganj Paurashava", "ward" : 9, "bn_name" : "রামগঞ্জ পৌরসভা", "district_id" : "7"},
    {"name" : "Ramgati Paurashava", "ward" : 9, "bn_name" : "রামগতি পৌরসভা", "district_id" : "7"},
    {"name" : "Begumganj (Chowmuhani } Paurashava", "ward" : 9, "bn_name" : "বেগমগঞ্জ (চৌমুহনী} পৌরসভা", "district_id" : "5"},
    {"name" : "Chatkhil Paurashava", "ward" : 9, "bn_name" : "চাটখিল পৌরসভা", "district_id" : "5"},
    {"name" : "Basurhat Paurashava", "ward" : 9, "bn_name" : "বসুরহাট পৌরসভা", "district_id" : "5"},
    {"name" : "Hatiya Paurashava", "ward" : 9, "bn_name" : "হাতিয়া পৌরসভা", "district_id" : "5"},
    {"name" : "Kabirhat Paurashava", "ward" : 9, "bn_name" : "কবিরহাট পৌরসভা", "district_id" : "5"},
    {"name" : "Senbagh Paurashava", "ward" : 9, "bn_name" : "সেনবাগ পৌরসভা", "district_id" : "5"},
    {"name" : "Sonaimuri Paurashava", "ward" : 9, "bn_name" : "সোনাইমুড়ী পৌরসভা", "district_id" : "5"},
    {"name" : "Noakhali Paurashava", "ward" : 9, "bn_name" : "নোয়াখালি  পৌরসভা", "district_id" : "5"},
    {"name" : "Baghaichhari Paurashava", "ward" : 9, "bn_name" : "বাঘাইছড়ি পৌরসভা", "district_id" : "4"},
    {"name" : "Rangamati Paurashava", "ward" : 9, "bn_name" : " পৌরসভা", "district_id" : "4"},
    {"name" : "Dhamrai Paurashava", "ward" : 9, "bn_name" : "ধামরাই পৌরসভা", "district_id" : "47"},
    {"name" : "Dohar Paurashava", "ward" : 9, "bn_name" : "দোহার পৌরসভা", "district_id" : "47"},
    {"name" : "Savar Paurashava", "ward" : 9, "bn_name" : "সাভার পৌরসভা", "district_id" : "47"},
    {"name" : "Bhanga Paurashava", "ward" : 9, "bn_name" : "ভাঙ্গা পৌরসভা", "district_id" : "52"},
    {"name" : "Boalmari Paurashava", "ward" : 9, "bn_name" : "বোয়ালমারী পৌরসভা", "district_id" : "52"},
    {"name" : "Faridpur Paurashava", "ward" : 9, "bn_name" : "ফরিদপুর পৌরসভা", "district_id" : "52"},
    {"name" : "Nagarkanda Paurashava", "ward" : 9, "bn_name" : "নগরকান্দা পৌরসভা", "district_id" : "52"},
    {"name" : "Gazipur Paurashava", "ward" : 9, "bn_name" : "গাজীপুর পৌরসভা", "district_id" : "41"},
    {"name" : "Tongi Paurashava", "ward" : 12, "bn_name" : "টঙ্গী পৌরসভা", "district_id" : "41"},
    {"name" : "Kaliakair Paurashava", "ward" : 9, "bn_name" : "কালিয়াকৈর পৌরসভা", "district_id" : "41"},
    {"name" : "Kaliganj Paurashava", "ward" : 9, "bn_name" : "কালীগঞ্জ পৌরসভা", "district_id" : "29"},
    {"name" : "Sreepur Paurashava", "ward" : 9, "bn_name" : "শ্রীপুর পৌরসভা", "district_id" : "41"},
    {"name" : "Gopalganj Paurashava", "ward" : 9, "bn_name" : "গোপালগঞ্জ পৌরসভা", "district_id" : "51"},
    {"name" : "Kotalipara Paurashava", "ward" : 9, "bn_name" : "কোটালীপাড়া পৌরসভা", "district_id" : "51"},
    {"name" : "Muksudpur Paurashava", "ward" : 9, "bn_name" : "মুকসুদপুর পৌরসভা", "district_id" : "51"},
    {"name" : "Tungipara Paurashava", "ward" : 9, "bn_name" : "টুংগীপাড়া পৌরসভা", "district_id" : "51"},
    {"name" : "Dewanganj Paurashava", "ward" : 9, "bn_name" : "দেওয়ানগঞ্জ পৌরসভা", "district_id" : "63"},
    {"name" : "Islampur Paurashava", "ward" : 9, "bn_name" : "ইসলামপুর পৌরসভা", "district_id" : "63"},
    {"name" : "Jamalpur Paurashava", "ward" : 12, "bn_name" : "জামালপুর পৌরসভা", "district_id" : "63"},
    {"name" : "Madarganj Paurashava", "ward" : 9, "bn_name" : "মাদারগঞ্জ পৌরসভা", "district_id" : "63"},
    {"name" : "Melandaha Paurashava", "ward" : 9, "bn_name" : "মেলান্দহ পৌরসভা", "district_id" : "63"},
    {"name" : "Sarishabari Paurashava", "ward" : 9, "bn_name" : "সরিষাবাড়ী পৌরসভা", "district_id" : "63"},
    {"name" : "Bajitpur Paurashava", "ward" : 9, "bn_name" : "বাজিতপুর পৌরসভা", "district_id" : "45"},
    {"name" : "Bhairab Paurashava", "ward" : 12, "bn_name" : "ভৈরব পৌরসভা", "district_id" : "45"},
    {"name" : "Hossainpur Paurashava", "ward" : 9, "bn_name" : "হোসেনপুর পৌরসভা", "district_id" : "45"},
    {"name" : "Karimganj Paurashava", "ward" : 9, "bn_name" : "করিমগঞ্জ পৌরসভা", "district_id" : "45"},
    {"name" : "Katiadi Paurashava", "ward" : 9, "bn_name" : "কটিয়াদি পৌরসভা", "district_id" : "45"},
    {"name" : "Kishoreganj Paurashava", "ward" : 9, "bn_name" : "কিশোরগঞ্জ পৌরসভা", "district_id" : "45"},
    {"name" : "Kuliarchar Paurashava", "ward" : 9, "bn_name" : "কুলিয়ারচর পৌরসভা", "district_id" : "45"},
    {"name" : "Pakundia Paurashava", "ward" : 9, "bn_name" : "পাকুন্দিয়া পৌরসভা", "district_id" : "45"},
    {"name" : "Kalkini Paurashava", "ward" : 9, "bn_name" : "কালকিনি পৌরসভা", "district_id" : "50"},
    {"name" : "Madaripur Paurashava", "ward" : 9, "bn_name" : "মাদারিপুর পৌরসভা", "district_id" : "50"},
    {"name" : "Shibchar Paurashava", "ward" : 9, "bn_name" : "শিবচর পৌরসভা", "district_id" : "50"},
    {"name" : "Manikganj Paurashava", "ward" : 9, "bn_name" : "মানিকগঞ্জ পৌরসভা", "district_id" : "46"},
    {"name" : "Singair Paurashava", "ward" : 9, "bn_name" : "সিঙ্গাইর পৌরসভা", "district_id" : "46"},
    {"name" : "Mirkadim Paurashava", "ward" : 9, "bn_name" : "মিরকাদিম পৌরসভা", "district_id" : "48"},
    {"name" : "Munshiganj Paurashava", "ward" : 9, "bn_name" : "মুন্সিগঞ্জ পৌরসভা", "district_id" : "48"},
    {"name" : "Bhaluka Paurashava", "ward" : 9, "bn_name" : "ভালুকা পৌরসভা", "district_id" : "62"},
    {"name" : "Fulbaria Paurashava", "ward" : 9, "bn_name" : "ফুলবাড়ীয়া পৌরসভা", "district_id" : "62"},
    {"name" : "Gafargaon  Paurashava", "ward" : 9, "bn_name" : "গফরগাঁও পৌরসভা", "district_id" : "62"}, 
    {"name" : "Gopalpur Paurashava", "ward" : 9, "bn_name" : "গোপালপুর পৌরসভা", "district_id" : "44"},
    {"name" : "Natore Paurashava", "ward" : 9, "bn_name" : "নাটোর পৌরসভা", "district_id" : "16"},
    {"name" : "Naldanga Paurashava", "ward" : 9, "bn_name" : "নলডাঙ্গা পৌরসভা", "district_id" : "16"},
    {"name" : "Singra Paurashava", "ward" : 12, "bn_name" : "সিংড়া পৌরসভা", "district_id" : "16"},
    {"name" : "Rahanpur Paurashava", "ward" : 9, "bn_name" : "রহনপুর পৌরসভা", "district_id" : "18"},
    {"name" : "Nachole Paurashava", "ward" : 9, "bn_name" : "নাচোল পৌরসভা", "district_id" : "18"},
    {"name" : "Chapai Nawabganj Paurashava", "ward" : 15, "bn_name" : "চাঁপাইনবাবগঞ্জ পৌরসভা", "district_id" : "18"},
    {"name" : "Shibganj Paurashava", "ward" : 9, "bn_name" : "শিবগঞ্জ পৌরসভা", "district_id" : "18"}, 
    {"name" : "Atgharia Paurashava", "ward" : 9, "bn_name" : "আটঘোরিয়া  পৌরসভা", "district_id" : "13"},
    {"name" : "Bera Paurashava", "ward" : 9, "bn_name" : "বেড়া পৌরসভা", "district_id" : "13"},
    {"name" : "Bhangura Paurashava", "ward" : 9, "bn_name" : "ভাঙ্গুড়া পৌরসভা", "district_id" : "13"},
    {"name" : "Chatmohar Paurashava", "ward" : 9, "bn_name" : "চাটমোহর পৌরসভা", "district_id" : "13"},
    {"name" : "Faridpur Paurashava", "ward" : 9, "bn_name" : "ফরিদপুর  পৌরসভা", "district_id" : "13"},
    {"name" : "Ishwardi Paurashava", "ward" : 9, "bn_name" : "ঈশ্বরদী পৌরসভা", "district_id" : "13"},
    {"name" : "Pabna Paurashava", "ward" : 15, "bn_name" : "পাবনা পৌরসভা", "district_id" : "13"},
    {"name" : "Santhia Paurashava", "ward" : 9, "bn_name" : "সাঁথিয়া পৌরসভা", "district_id" : "13"},
    {"name" : "Sujanagar Paurashava", "ward" : 9, "bn_name" : "সুজানগর পৌরসভা", "district_id" : "13"},
    {"name" : "Bagha Paurashava", "ward" : 9, "bn_name" : "বাঘা পৌরসভা", "district_id" : "15"},
    {"name" : "Arani Paurashava", "ward" : 9, "bn_name" : "আড়ানি পৌরসভা", "district_id" : "15"},
    {"name" : "Bhabanigonj Paurashava", "ward" : 9, "bn_name" : "ভবানীগঞ্জ পৌরসভা", "district_id" : "15"},
    {"name" : "Tahirpur Paurashava", "ward" : 9, "bn_name" : "তাহেরপুর  পৌরসভা", "district_id" : "15"},
    {"name" : "Charghat Paurashava", "ward" : 9, "bn_name" : "চারঘাট  পৌরসভা", "district_id" : "15"},
    {"name" : "Durgapur Paurashava", "ward" : 9, "bn_name" : "দুর্গাপুর পৌরসভা", "district_id" : "15"},
    {"name" : "Godagari Paurashava", "ward" : 9, "bn_name" : "গোদাগাড়ী পৌরসভা", "district_id" : "15"},
    {"name" : "Kakonhat Paurashava", "ward" : 9, "bn_name" : "কাঁকনহাট পৌরসভা", "district_id" : "15"},
    {"name" : "Kesharhat Paurashava", "ward" : 9, "bn_name" : "কেশরহাট পৌরসভা", "district_id" : "15"},
    {"name" : "Katakhali Paurashava", "ward" : 9, "bn_name" : "কাটাখালী পৌরসভা", "district_id" : "15"},
    {"name" : "Noahata Paurashava", "ward" : 9, "bn_name" : "নওহাটা পৌরসভা", "district_id" : "15"},
    {"name" : "Puthia Paurashava", "ward" : 9, "bn_name" : "পুঠিয়া পৌরসভা", "district_id" : "15"},
    {"name" : "Tanore Paurashava", "ward" : 9, "bn_name" : "তানোর পৌরসভা", "district_id" : "15"},
    {"name" : "Mundumala Paurashava", "ward" : 9, "bn_name" : "মুন্ডুমালা পৌরসভা", "district_id" : "15"},
    {"name" : "Belkuchi Paurashava", "ward" : 9, "bn_name" : "বেলকুচি পৌরসভা", "district_id" : "12"},
    {"name" : "Kazipur Paurashava", "ward" : 9, "bn_name" : "কাজীপুর পৌরসভা", "district_id" : "12"},
    {"name" : "Royganj Paurashava", "ward" : 9, "bn_name" : "রায়গঞ্জ পৌরসভা", "district_id" : "12"},
    {"name" : "Shahjadpur Paurashava", "ward" : 9, "bn_name" : "শাহজাদপুর পৌরসভা", "district_id" : "12"},
    {"name" : "Sirajganj Paurashava", "ward" : 15, "bn_name" : "সিরাজগঞ্জ পৌরসভা", "district_id" : "12"},
    {"name" : "Ullah Para Paurashava", "ward" : 9, "bn_name" : "উল্লাপাড়া পৌরসভা", "district_id" : "12"},
    {"name" : "Birampur Paurashava", "ward" : 9, "bn_name" : "বিরামপুর পৌরসভা", "district_id" : "54"},
    {"name" : "Birganj Paurashava", "ward" : 9, "bn_name" : "বীরগঞ্জ পৌরসভা", "district_id" : "54"},
    {"name" : "Setabganj Paurashava", "ward" : 9, "bn_name" : "সেতাবগঞ্জ পৌরসভা", "district_id" : "54"},
    {"name" : "Fulbari Paurashava", "ward" : 9, "bn_name" : "ফুলবাড়ী পৌরসভা", "district_id" : "54"},
    {"name" : "Ghoraghat Paurashava", "ward" : 9, "bn_name" : "ঘোড়াঘাট পৌরসভা", "district_id" : "54"},
    {"name" : "Hakimpur Paurashava", "ward" : 9, "bn_name" : "হাকিমপুর পৌরসভা", "district_id" : "54"},
    {"name" : "Dinajpur Paurashava", "ward" : 12, "bn_name" : "দিনাজপুর পৌরসভা", "district_id" : "54"},
    {"name" : "Parbatipur Paurashava", "ward" : 9, "bn_name" : "পার্বতীপুর পৌরসভা", "district_id" : "54"},
    {"name" : "Gaibandha Paurashava", "ward" : 9, "bn_name" : "গাইবান্ধা পৌরসভা", "district_id" : "57"},
    {"name" : "Gobindaganj Paurashava", "ward" : 9, "bn_name" : "গোবিন্দগঞ্জ পৌরসভা", "district_id" : "57"},
    {"name" : "Sundarganj Paurashava", "ward" : 9, "bn_name" : "সুন্দরগঞ্জ পৌরসভা", "district_id" : "57"},
    {"name" : "Kurigram Paurashava", "ward" : 9, "bn_name" : "কুড়িগ্রাম পৌরসভা", "district_id" : "60"},
    {"name" : "Nageshwari Paurashava", "ward" : 9, "bn_name" : "নাগেশ্বরী পৌরসভা", "district_id" : "60"},
    {"name" : "Ulipur Paurashava", "ward" : 9, "bn_name" : "উলিপুর পৌরসভা", "district_id" : "60"},
    {"name" : "Lalmonirhat Paurashava", "ward" : 9, "bn_name" : "লালমনিরহাট পৌরসভা", "district_id" : "55"},
    {"name" : "Patgram Paurashava", "ward" : 9, "bn_name" : "পাটগ্রাম পৌরসভা", "district_id" : "55"},
    {"name" : "Domar Paurashava", "ward" : 9, "bn_name" : "ডোমার পৌরসভা", "district_id" : "56"},
    {"name" : "Jaldhaka Paurashava", "ward" : 9, "bn_name" : "জলঢাকা পৌরসভা", "district_id" : "56"},
    {"name" : "Nilphamari Paurashava", "ward" : 9, "bn_name" : "নীলফামারী পৌরসভা", "district_id" : "56"},
    {"name" : "Saidpur Paurashava", "ward" : 9, "bn_name" : "সৈয়দপুর  পৌরসভা", "district_id" : "56"},
    {"name" : "Boda Paurashava", "ward" : 9, "bn_name" : "বোদা পৌরসভা", "district_id" : "53"}, 
    {"name" : "Saidpur Paurashava", "ward" : 9, "bn_name" : "সৈয়দপুর পৌরসভা", "district_id" : "56"},
    {"name" : "Boda Paurashava", "ward" : 9, "bn_name" : "বোদা পৌরসভা", "district_id" : "53"},
    {"name" : "Panchagarh Paurashava", "ward" : 9, "bn_name" : " পৌরসভা", "district_id" : "53"},
    {"name" : "Badarganj Paurashava", "ward" : 9, "bn_name" : "বদরগঞ্জ পৌরসভা", "district_id" : "59"},
    {"name" : "Haragach Paurashava", "ward" : 9, "bn_name" : "হারাগাছ পৌরসভা", "district_id" : "59"},
    {"name" : "Rangpur Paurashava", "ward" : 15, "bn_name" : "রংপুর পৌরসভা", "district_id" : "59"},
    {"name" : "Pirganj Paurashava", "ward" : 9, "bn_name" : "পীরগঞ্জ পৌরসভা", "district_id" : "59"},
    {"name" : "Ranisankail Paurashava", "ward" : 9, "bn_name" : "রাণীশংকৈল পৌরসভা", "district_id" : "58"},
    {"name" : "Thakurgaon Paurashava", "ward" : 9, "bn_name" : "ঠাকুরগাঁও পৌরসভা", "district_id" : "58"},
    {"name" : "Ajmiriganj Paurashava", "ward" : 9, "bn_name" : "আজমিরিগঞ্জ পৌরসভা", "district_id" : "38"},
    {"name" : "Chunarughat Paurashava", "ward" : 9, "bn_name" : "চুনারুঘাট পৌরসভা", "district_id" : "38"},
    {"name" : "Habiganj Paurashava", "ward" : 9, "bn_name" : "হবিগঞ্জ পৌরসভা", "district_id" : "38"},
    {"name" : "Shayestaganj Paurashava", "ward" : 9, "bn_name" : "শায়েস্তাগঞ্জ পৌরসভা", "district_id" : "38"},
    {"name" : "Madhabpur Paurashava", "ward" : 9, "bn_name" : "মাধবপুর পৌরসভা", "district_id" : "38"},
    {"name" : "Nabiganj Paurashava", "ward" : 9, "bn_name" : "নবীগঞ্জ পৌরসভা", "district_id" : "38"},
    {"name" : "Barlekha Paurashava", "ward" : 9, "bn_name" : "বড়লেখা পৌরসভা", "district_id" : "37"},
    {"name" : "Kamalganj Paurashava", "ward" : 9, "bn_name" : "কমলগঞ্জ পৌরসভা", "district_id" : "37"},
    {"name" : "Kulaura Paurashava", "ward" : 9, "bn_name" : "কুলাউড়া পৌরসভা", "district_id" : "37"},
    {"name" : "Maulvibazar Paurashava", "ward" : 9, "bn_name" : "মৌলভীবাজার পৌরসভা", "district_id" : "37"},
    {"name" : "Sreemangal Paurashava", "ward" : 9, "bn_name" : "শ্রীমঙ্গল পৌরসভা", "district_id" : "36"},
    {"name" : "Chhatak Paurashava", "ward" : 9, "bn_name" : "ছাতক পৌরসভা", "district_id" : "39"},
    {"name" : "Derai Paurashava", "ward" : 9, "bn_name" : "দিরাই পৌরসভা", "district_id" : "39"},
    {"name" : "Jagannathpur Paurashava", "ward" : 9, "bn_name" : "জগন্নাথপুর পৌরসভা", "district_id" : "39"},
    {"name" : "Sunamganj Paurashava", "ward" : 9, "bn_name" : "সুনামগঞ্জ পৌরসভা", "district_id" : "39"},
    {"name" : "Beanie Bazar Paurashava", "ward" : 9, "bn_name" : "বিয়ানী পৌরসভা", "district_id" : "36"},
    {"name" : "Golapganj Paurashava", "ward" : 9, "bn_name" : "গোলাপগঞ্জ পৌরসভা", "district_id" : "36"},
    {"name" : "Kanaighat Paurashava", "ward" : 9, "bn_name" : "কানাইঘাট পৌরসভা", "district_id" : "36"},
    {"name" : "Zakiganj Paurashava", "ward" : 9, "bn_name" : "জকিগঞ্জ পৌরসভা", "district_id" : "36"}

]